STARLINK-4789           
1 53868U 22114BC  25183.63218713  .00000013  00000+0  18904-4 0  9999
2 53868  53.2182 306.5832 0001175  88.7044 271.4083 15.08836944155649
STARLINK-4810           
1 53869U 22114BD  25183.74531882  .00000639  00000+0  58263-4 0  9993
2 53869  53.2194 315.8336 0001254  87.3752 272.7384 15.08838041155529
STARLINK-4732           
1 53870U 22114BE  25183.63587018 -.00000386  00000+0 -61559-5 0  9999
2 53870  53.2188 306.5917 0001281 102.2046 257.9090 15.08833642155643
STARLINK-4740           
1 53871U 22114BF  25183.73887283 -.00000266  00000+0  13537-5 0  9997
2 53871  53.2183 305.8141 0001123  83.9550 276.1570 15.08837594155668
STARLINK-5028           
1 53886U 22119A   25183.78126274 -.00000038  00000+0  15699-4 0  9996
2 53886  53.2182   6.2327 0001304  90.3590 269.7552 15.08838437153953
STARLINK-5029           
1 53887U 22119B   25183.90268830  .00000158  00000+0  27988-4 0  9992
2 53887  53.2175   5.5693 0001076  89.6020 270.5095 15.08842049153977
STARLINK-5034           
1 53888U 22119C   25183.77757386 -.00003724  00000+0 -21597-3 0  9990
2 53888  53.2184   6.2090 0001309  84.7446 275.3696 15.08850207153957
STARLINK-5031           
1 53889U 22119D   25183.90637463  .00000120  00000+0  25602-4 0  9996
2 53889  53.2186   5.5904 0001298  89.3438 270.7703 15.08841193153979
STARLINK-5050           
1 53890U 22119E   25183.66851305 -.00000458  00000+0 -10713-4 0  9997
2 53890  53.2183 331.2937 0001234  83.7412 276.3721 15.08839315154430
STARLINK-5041           
1 53891U 22119F   25183.83276436 -.00000176  00000+0  70108-5 0  9994
2 53891  53.2184   5.8433 0001371  87.8278 272.2871 15.08842557153964
STARLINK-5046           
1 53892U 22119G   25183.88058479 -.00000660  00000+0 -23408-4 0  9994
2 53892  53.2193   5.4334 0001244  88.9748 271.1386 15.08838967153974
STARLINK-5052           
1 53893U 22119H   25183.82635506  .00000271  00000+0  35122-4 0  9993
2 53893  53.2188   5.8026 0001438  88.0893 272.0264 15.08841288153962
STARLINK-5043           
1 53894U 22119J   25183.89532316 -.00000167  00000+0  76119-5 0  9993
2 53894  53.2189   5.5247 0001328  87.0831 273.0313 15.08840042153979
STARLINK-5032           
1 53895U 22119K   25183.81802805 -.00000178  00000+0  68937-5 0  9990
2 53895  53.2191   5.7533 0001307  90.1840 269.9302 15.08839529153964
STARLINK-5037           
1 53896U 22119L   25183.81063209  .00002621  00000+0  18261-3 0  9995
2 53896  53.2185   5.7100 0001071  91.9382 268.1733 15.08854892153965
STARLINK-5035           
1 53897U 22119M   25183.82539694  .00000698  00000+0  61970-4 0  9991
2 53897  53.2196   5.7997 0001413  85.2252 274.8901 15.08840609153966
STARLINK-5044           
1 53898U 22119N   25183.93208503 -.00000532  00000+0 -15360-4 0  9997
2 53898  53.2183   5.0463 0001341  89.4656 270.6490 15.08835709153982
STARLINK-5042           
1 53899U 22119P   25183.86952768  .00000360  00000+0  40714-4 0  9997
2 53899  53.2186   5.3663 0001266  88.7346 271.3791 15.08838640153557
STARLINK-5045           
1 53900U 22119Q   25183.92471562 -.00000456  00000+0 -10590-4 0  9992
2 53900  53.2198   5.0003 0001406  93.1137 267.0016 15.08836552153981
STARLINK-5024           
1 53901U 22119R   25183.80424860 -.00000532  00000+0 -15361-4 0  9995
2 53901  53.2185   5.6697 0001306  90.5121 269.6021 15.08835653153969
STARLINK-5021           
1 53902U 22119S   25183.79316872  .00000002  00000+0  18217-4 0  9990
2 53902  53.2182 315.7027 0001198  88.2049 271.9081 15.08837326154660
STARLINK-5022           
1 53903U 22119T   25183.87417268 -.00000364  00000+0 -47971-5 0  9994
2 53903  53.2187   5.3934 0001334  92.2284 267.8861 15.08836409153977
STARLINK-4787           
1 53904U 22119U   25183.92102858 -.00000674  00000+0 -24233-4 0  9996
2 53904  53.2194   4.9774 0001353  87.3018 272.8129 15.08839422153986
STARLINK-5003           
1 53905U 22119V   25183.77850300 -.00000450  00000+0 -10163-4 0  9991
2 53905  53.2193 356.2363 0001341  90.9509 269.1636 15.08837308154091
STARLINK-5054           
1 53906U 22119W   25183.79684532  .00000153  00000+0  27731-4 0  9993
2 53906  53.2191 355.6499 0001319  89.4362 270.6781 15.08838396154106
STARLINK-5057           
1 53908U 22119Y   25183.77113035  .00000027  00000+0  19802-4 0  9998
2 53908  53.2198 356.1903 0001251  87.2591 272.8544 15.08840399154091
STARLINK-4796           
1 53909U 22119Z   25183.78219204 -.00000415  00000+0 -79747-5 0  9993
2 53909  53.2194 356.2596 0001335  91.4934 268.6211 15.08835029154096
STARLINK-5056           
1 53910U 22119AA  25183.64992288  .00010120  00000+0  25737-3 0  9990
2 53910  53.2033 308.9541 0001513  34.7540 325.3564 15.40245351154759
STARLINK-5048           
1 53911U 22119AB  25183.90730006 -.00000777  00000+0 -30721-4 0  9997
2 53911  53.2191 355.6189 0001349  91.5635 268.5512 15.08838567154117
STARLINK-5059           
1 53912U 22119AC  25183.78947601  .00000389  00000+0  42514-4 0  9995
2 53912  53.2193 355.6071 0001278  91.6261 268.4878 15.08836982154109
STARLINK-5053           
1 53913U 22119AD  25183.75639620 -.00000519  00000+0 -14498-4 0  9999
2 53913  53.2194 356.0978 0001397  94.7641 265.3510 15.08838435154092
STARLINK-5040           
1 53914U 22119AE  25183.75270933 -.00000221  00000+0  42246-5 0  9990
2 53914  53.2188 356.0781 0001488  93.2473 266.8690 15.08840061154099
STARLINK-5017           
1 53915U 22119AF  25183.76745083 -.00000515  00000+0 -14287-4 0  9995
2 53915  53.2195 356.1672 0001277  91.1433 268.9705 15.08837261154095
STARLINK-5051           
1 53916U 22119AG  25183.71771598 -.00000274  00000+0  87993-6 0  9998
2 53916  53.2193 335.9425 0001344  91.4745 268.6402 15.08837649154382
STARLINK-5036           
1 53917U 22119AH  25183.76008404  .00000512  00000+0  50256-4 0  9997
2 53917  53.2190 356.1209 0001280  90.2623 269.8515 15.08850073154098
STARLINK-5012           
1 53918U 22119AJ  25183.74902589 -.00000329  00000+0 -26130-5 0  9996
2 53918  53.2180 356.0521 0001299  90.3646 269.7495 15.08839225154092
STARLINK-5023           
1 53919U 22119AK  25183.74535088 -.00002017  00000+0 -10869-3 0  9999
2 53919  53.2185 356.0295 0001713  82.1149 278.0038 15.08835865154096
STARLINK-5025           
1 53920U 22119AL  25183.76472970  .00001137  00000+0  89514-4 0  9997
2 53920  53.2195 356.1444 0001310  90.6859 269.4283 15.08841860154099
STARLINK-5002           
1 53922U 22119AN  25183.80052820 -.00000299  00000+0 -66881-6 0  9996
2 53922  53.2186 355.6639 0001307  87.7436 272.3706 15.08840919154104
STARLINK-5004           
1 53923U 22119AP  25183.87413976 -.00000960  00000+0 -42263-4 0  9998
2 53923  53.2185 355.4122 0001435  86.1914 273.9242 15.08832865153691
STARLINK-5001           
1 53924U 22119AQ  25183.74764410 -.00000771  00000+0 -30356-4 0  9997
2 53924  53.2189 351.0577 0001362  92.3010 267.8138 15.08838883154162
STARLINK-5011           
1 53925U 22119AR  25183.91827315 -.00000162  00000+0  79198-5 0  9992
2 53925  53.2196 354.9890 0001379  91.9276 268.1874 15.08836940154127
STARLINK-5014           
1 53926U 22119AS  25183.73659029 -.00000006  00000+0  17712-4 0  9998
2 53926  53.2186 350.9872 0001267  99.5019 260.6116 15.08842111154176
STARLINK-5008           
1 53927U 22119AT  25183.63136116  .00059257  00000+0  89846-3 0  9992
2 53927  53.1921 303.5820 0003828 272.4286  87.6287 15.54075931154820
STARLINK-5009           
1 53928U 22119AU  25183.74626617 -.00000294  00000+0 -40537-6 0  9991
2 53928  53.2193 346.0595 0001267  90.4686 269.6452 15.08835850154235
STARLINK-5018           
1 53929U 22119AV  25183.79420122 -.00000356  00000+0 -42582-5 0  9990
2 53929  53.2195 356.3195 0001325  89.4821 270.6323 15.08839426154098
STARLINK-5010           
1 53930U 22119AW  25183.73152580 -.00000785  00000+0 -31219-4 0  9996
2 53930  53.2195 345.9663 0001369  96.9991 263.1157 15.08838124154235
STARLINK-5015           
1 53931U 22119AX  25183.72277312 -.00000426  00000+0 -87074-5 0  9990
2 53931  53.2189 340.9292 0001336  94.5327 265.5817 15.08840933154301
STARLINK-4772           
1 53932U 22119AY  25183.76331052 -.00002340  00000+0 -12893-3 0  9999
2 53932  53.2190 341.1757 0001365  90.9084 269.2065 15.08852112154314
STARLINK-4782           
1 53933U 22119AZ  25183.74257887  .00000416  00000+0  44237-4 0  9999
2 53933  53.2196 346.0351 0001410  87.3486 272.7668 15.08833047154237
STARLINK-4775           
1 53934U 22119BA  25183.75962673 -.00000443  00000+0 -97542-5 0  9997
2 53934  53.2180 341.1507 0001255  84.4707 275.6428 15.08837017154328
STARLINK-5000           
1 53935U 22119BB  25183.67588647 -.00001879  00000+0 -99979-4 0  9993
2 53935  53.2181 331.3568 0001207  79.5242 280.5886 15.08840374154439
STARLINK-4791           
1 53936U 22119BC  25183.73014386 -.00000114  00000+0  10936-4 0  9991
2 53936  53.2193 340.9675 0001255  91.3101 268.8035 15.08837990154319
STARLINK-4633           
1 53964U 22125A   25183.92293759  .00000056  00000+0  21635-4 0  9995
2 53964  53.2177 265.5241 0001164  85.2480 274.8645 15.08837631151610
STARLINK-4578           
1 53965U 22125B   25183.52276950 -.00000751  00000+0 -29124-4 0  9991
2 53965  53.2176 267.2900 0001099  86.9712 273.1406 15.08836052151628
STARLINK-4635           
1 53966U 22125C   25183.91556522 -.00000460  00000+0 -10801-4 0  9990
2 53966  53.2176 265.4772 0000896  85.6408 274.4687 15.08837583151612
STARLINK-4634           
1 53967U 22125D   25183.51444290 -.00000639  00000+0 -22073-4 0  9997
2 53967  53.2174 267.2384 0001093  90.4612 269.6505 15.08837175151556
STARLINK-4629           
1 53968U 22125E   25183.50338560 -.00000770  00000+0 -30323-4 0  9992
2 53968  53.2169 267.1687 0001186  92.3340 267.7788 15.08839780151622
STARLINK-4468           
1 53969U 22125F   25183.51075890 -.00000679  00000+0 -24583-4 0  9997
2 53969  53.2171 267.2146 0001095  87.3886 272.7232 15.08833027151555
